     3.03           N: GNSS NAV DATA    E                   RINEX VERSION / TYPE
Gxxxxxx             Xxxx Gxxx           20190116 123337 UTC PGM / RUN BY / DATE
GAL    1.3900e+02  1.3200e-01  1.8600e-02                   IONOSPHERIC CORR
GAUT  0.0000000000e+00 0.000000000e+00      0    0          TIME SYSTEM CORR
    20                  GPS                                 LEAP SECONDS
                                                            END OF HEADER
E02 2016 01 31 23 20 00 0.000000000000e+00 0.000000000000e+00 0.000000000000e+00
     2.000000000000e+00 0.000000000000e+00 0.000000000000e+00 1.068229316336e+00
    -9.313225746155e-09 8.999999961816e-03 0.000000000000e+00 5.440707399368e+03
     8.400000000000e+04-5.587935447693e-09 4.515803819724e+04-5.587935447693e-09
     9.757145847375e-01-5.000000000000e-01 2.327105672035e-01-5.227360597694e-09
    -5.714523747137e-12 5.130000000000e+02 1.882000000000e+03 0.000000000000e+00
     0.000000000000e+00 0.000000000000e+00 0.000000000000e+00 0.000000000000e+00
     9.999000000000e+08 0.000000000000e+00 0.000000000000e+00 0.000000000000e+00
E03 2016 01 31 23 20 00 0.000000000000e+00 0.000000000000e+00 0.000000000000e+00
     2.000000000000e+00 5.000000000000e-01 5.714523747137e-12 1.535320247382e+00
     0.000000000000e+00 8.999999961816e-03 9.313225746155e-09 5.440707399368e+03
     8.400000000000e+04-5.587935447693e-09 4.515803666983e+04-5.587935447693e-09
     9.757145847375e-01 0.000000000000e+00 4.654211344070e-01-5.232360805973e-09
    -5.714523747137e-12 5.130000000000e+02 1.882000000000e+03 0.000000000000e+00
     0.000000000000e+00 0.000000000000e+00 0.000000000000e+00 0.000000000000e+00
     9.999000000000e+08 0.000000000000e+00 0.000000000000e+00 0.000000000000e+00
E04 2016 01 31 23 20 00 0.000000000000e+00 0.000000000000e+00 0.000000000000e+00
     2.000000000000e+00-5.000000000000e-01-5.714523747137e-12 1.997401787048e+00
     0.000000000000e+00 8.999999961816e-03-9.313225746155e-09 5.440707399368e+03
     8.400000000000e+04-5.587935447693e-09 4.515803972464e+04-5.587935447693e-09
     9.757145847375e-01 0.000000000000e+00 6.981317001475e-01-5.222003231681e-09
    -5.714523747137e-12 5.130000000000e+02 1.882000000000e+03 0.000000000000e+00
     0.000000000000e+00 0.000000000000e+00 0.000000000000e+00 0.000000000000e+00
     9.999000000000e+08 0.000000000000e+00 0.000000000000e+00 0.000000000000e+00
E10 2016 01 31 23 20 00 0.000000000000e+00 0.000000000000e+00 0.000000000000e+00
     2.000000000000e+00-5.000000000000e-01-5.714523747137e-12-1.260546149413e+00
     0.000000000000e+00 8.999999961816e-03-9.313225746155e-09 5.440707399368e+03
     8.400000000000e+04 0.000000000000e+00 4.516013411974e+04 5.587935447693e-09
     9.790541780163e-01 0.000000000000e+00 2.094395101906e+00-5.222003231681e-09
     5.714523747137e-12 5.130000000000e+02 1.882000000000e+03 0.000000000000e+00
     0.000000000000e+00 0.000000000000e+00 0.000000000000e+00 0.000000000000e+00
     9.999000000000e+08 0.000000000000e+00 0.000000000000e+00 0.000000000000e+00
E11 2016 01 31 23 20 00 0.000000000000e+00 0.000000000000e+00 0.000000000000e+00
     2.000000000000e+00 0.000000000000e+00 0.000000000000e+00-7.934552183661e-01
     9.313225746155e-09 8.999999961816e-03 0.000000000000e+00 5.440707399368e+03
     8.400000000000e+04 0.000000000000e+00 4.516013259234e+04 5.587935447693e-09
     9.790541780163e-01 5.000000000000e-01 2.327105669109e+00-5.227360597694e-09
     5.714523747137e-12 5.130000000000e+02 1.882000000000e+03 0.000000000000e+00
     0.000000000000e+00 0.000000000000e+00 0.000000000000e+00 0.000000000000e+00
     9.999000000000e+08 0.000000000000e+00 0.000000000000e+00 0.000000000000e+00
E12 2016 01 31 23 20 00 0.000000000000e+00 0.000000000000e+00 0.000000000000e+00
     2.000000000000e+00 5.000000000000e-01 5.714523747137e-12-3.263642887826e-01
     9.313225746155e-09 8.999999961816e-03 9.313225746155e-09 5.440707399368e+03
     8.400000000000e+04 0.000000000000e+00 4.516013106493e+04 5.587935447693e-09
     9.790541780163e-01 5.000000000000e-01 2.559816236313e+00-5.232360805973e-09
     5.714523747137e-12 5.130000000000e+02 1.882000000000e+03 0.000000000000e+00
     0.000000000000e+00 0.000000000000e+00 0.000000000000e+00 0.000000000000e+00
     9.999000000000e+08 0.000000000000e+00 0.000000000000e+00 0.000000000000e+00
E18 2016 01 31 23 20 00 0.000000000000e+00 0.000000000000e+00 0.000000000000e+00
     2.000000000000e+00 5.000000000000e-01 5.714523747137e-12 2.466162514733e+00
     9.313225746155e-09 8.999999961816e-03 9.313225746155e-09 5.440707399368e+03
     8.400000000000e+04 5.587935447693e-09 4.516013106493e+04 0.000000000000e+00
     9.773843813769e-01 5.000000000000e-01-2.327105669109e+00-5.232360805973e-09
     0.000000000000e+00 5.130000000000e+02 1.882000000000e+03 0.000000000000e+00
     0.000000000000e+00 0.000000000000e+00 0.000000000000e+00 0.000000000000e+00
     9.999000000000e+08 0.000000000000e+00 0.000000000000e+00 0.000000000000e+00
E19 2016 01 31 23 20 00 0.000000000000e+00 0.000000000000e+00 0.000000000000e+00
     2.000000000000e+00-5.000000000000e-01-5.714523747137e-12-3.122230685578e+00
    -9.313225746155e-09 8.999999961816e-03-9.313225746155e-09 5.440707399368e+03
     8.400000000000e+04 5.587935447693e-09 4.516222851485e+04 0.000000000000e+00
     9.773843813769e-01-5.000000000000e-01-2.094395101906e+00-5.222003231681e-09
     0.000000000000e+00 5.130000000000e+02 1.882000000000e+03 0.000000000000e+00
     0.000000000000e+00 0.000000000000e+00 0.000000000000e+00 0.000000000000e+00
     9.999000000000e+08 0.000000000000e+00 0.000000000000e+00 0.000000000000e+00
E26 2016 01 31 23 20 00 0.000000000000e+00 0.000000000000e+00 0.000000000000e+00
     2.000000000000e+00 0.000000000000e+00 0.000000000000e+00 1.373870489849e-01
    -9.313225746155e-09 8.999999961816e-03 0.000000000000e+00 5.440707399368e+03
     8.400000000000e+04-5.587935447693e-09 4.516222698744e+04-5.587935447693e-09
     9.757145847375e-01-5.000000000000e-01-4.654211344070e-01-5.227360597694e-09
    -5.714523747137e-12 5.130000000000e+02 1.882000000000e+03 0.000000000000e+00
     0.000000000000e+00 0.000000000000e+00 0.000000000000e+00 0.000000000000e+00
     9.999000000000e+08 0.000000000000e+00 0.000000000000e+00 0.000000000000e+00
E27 2016 01 31 23 20 00 0.000000000000e+00 0.000000000000e+00 0.000000000000e+00
     2.000000000000e+00 5.000000000000e-01 5.714523747137e-12 6.044779800313e-01
     0.000000000000e+00 8.999999961816e-03 9.313225746155e-09 5.440707399368e+03
     8.400000000000e+04-5.587935447693e-09 4.516222546003e+04-5.587935447693e-09
     9.757145847375e-01 0.000000000000e+00-2.327105672035e-01-5.232360805973e-09
    -5.714523747137e-12 5.130000000000e+02 1.882000000000e+03 0.000000000000e+00
     0.000000000000e+00 0.000000000000e+00 0.000000000000e+00 0.000000000000e+00
     9.999000000000e+08 0.000000000000e+00 0.000000000000e+00 0.000000000000e+00
